CCSDS_OMM_VERS = 2.0
CREATION_DATE  = 
ORIGINATOR     = 

OBJECT_NAME    = COSMOS 1933
OBJECT_ID      = 1988-020A
CENTER_NAME    = EARTH
REF_FRAME      = TEME
TIME_SYSTEM    = UTC
MEAN_ELEMENT_THEORY = SGP/SGP4

EPOCH          = 2026-02-26T01:20:45.481344
MEAN_MOTION    = 15.17861683
ECCENTRICITY   = .00028591
INCLINATION    = 82.5100
RA_OF_ASC_NODE = 262.4241
ARG_OF_PERICENTER = 228.3556
MEAN_ANOMALY   = 131.7433

EPHEMERIS_TYPE = 0
CLASSIFICATION_TYPE = U
NORAD_CAT_ID   = 18958
ELEMENT_SET_NO = 999
REV_AT_EPOCH   = 4846
BSTAR          = .1848571E-3
MEAN_MOTION_DOT = .3772E-4
MEAN_MOTION_DDOT = 0

CCSDS_OMM_VERS = 2.0
CREATION_DATE  = 
ORIGINATOR     = 

OBJECT_NAME    = SL-3 R/B
OBJECT_ID      = 1988-032B
CENTER_NAME    = EARTH
REF_FRAME      = TEME
TIME_SYSTEM    = UTC
MEAN_ELEMENT_THEORY = SGP/SGP4

EPOCH          = 2026-02-26T05:03:28.206432
MEAN_MOTION    = 15.19748332
ECCENTRICITY   = .00240808
INCLINATION    = 97.5173
RA_OF_ASC_NODE = 40.5055
ARG_OF_PERICENTER = 274.6776
MEAN_ANOMALY   = 85.1708

EPHEMERIS_TYPE = 0
CLASSIFICATION_TYPE = U
NORAD_CAT_ID   = 19046
ELEMENT_SET_NO = 999
REV_AT_EPOCH   = 5036
BSTAR          = .26973316E-3
MEAN_MOTION_DOT = .574E-4
MEAN_MOTION_DDOT = 0

CCSDS_OMM_VERS = 2.0
CREATION_DATE  = 
ORIGINATOR     = 

OBJECT_NAME    = SL-16 R/B
OBJECT_ID      = 1988-039B
CENTER_NAME    = EARTH
REF_FRAME      = TEME
TIME_SYSTEM    = UTC
MEAN_ELEMENT_THEORY = SGP/SGP4

EPOCH          = 2026-02-26T06:48:14.606496
MEAN_MOTION    = 14.19613950
ECCENTRICITY   = .00220777
INCLINATION    = 71.0131
RA_OF_ASC_NODE = 92.6685
ARG_OF_PERICENTER = 351.3353
MEAN_ANOMALY   = 8.7387

EPHEMERIS_TYPE = 0
CLASSIFICATION_TYPE = U
NORAD_CAT_ID   = 19120
ELEMENT_SET_NO = 999
REV_AT_EPOCH   = 95676
BSTAR          = .66168364E-4
MEAN_MOTION_DOT = .92E-6
MEAN_MOTION_DDOT = 0

CCSDS_OMM_VERS = 2.0
CREATION_DATE  = 
ORIGINATOR     = 

OBJECT_NAME    = COSMOS 1953
OBJECT_ID      = 1988-050A
CENTER_NAME    = EARTH
REF_FRAME      = TEME
TIME_SYSTEM    = UTC
MEAN_ELEMENT_THEORY = SGP/SGP4

EPOCH          = 2026-02-26T07:11:02.302080
MEAN_MOTION    = 15.28283364
ECCENTRICITY   = .00119522
INCLINATION    = 82.5103
RA_OF_ASC_NODE = 169.6973
ARG_OF_PERICENTER = 159.8246
MEAN_ANOMALY   = 200.3468

EPHEMERIS_TYPE = 0
CLASSIFICATION_TYPE = U
NORAD_CAT_ID   = 19210
ELEMENT_SET_NO = 999
REV_AT_EPOCH   = 3604
BSTAR          = .32016595E-3
MEAN_MOTION_DOT = .887E-4
MEAN_MOTION_DDOT = 0

CCSDS_OMM_VERS = 2.0
CREATION_DATE  = 
ORIGINATOR     = 

OBJECT_NAME    = SL-8 R/B
OBJECT_ID      = 1988-053B
CENTER_NAME    = EARTH
REF_FRAME      = TEME
TIME_SYSTEM    = UTC
MEAN_ELEMENT_THEORY = SGP/SGP4

EPOCH          = 2026-02-26T05:54:34.940736
MEAN_MOTION    = 14.38907919
ECCENTRICITY   = .00210965
INCLINATION    = 74.0477
RA_OF_ASC_NODE = 133.5593
ARG_OF_PERICENTER = 314.6166
MEAN_ANOMALY   = 64.2587

EPHEMERIS_TYPE = 0
CLASSIFICATION_TYPE = U
NORAD_CAT_ID   = 19257
ELEMENT_SET_NO = 999
REV_AT_EPOCH   = 97495
BSTAR          = .77499957E-4
MEAN_MOTION_DOT = .213E-5
MEAN_MOTION_DDOT = 0

CCSDS_OMM_VERS = 2.0
CREATION_DATE  = 
ORIGINATOR     = 

OBJECT_NAME    = COSMOS 1975
OBJECT_ID      = 1988-093A
CENTER_NAME    = EARTH
REF_FRAME      = TEME
TIME_SYSTEM    = UTC
MEAN_ELEMENT_THEORY = SGP/SGP4

EPOCH          = 2026-02-26T06:20:36.836736
MEAN_MOTION    = 15.27863640
ECCENTRICITY   = .00111528
INCLINATION    = 82.5207
RA_OF_ASC_NODE = 129.1516
ARG_OF_PERICENTER = 203.4738
MEAN_ANOMALY   = 156.5994

EPHEMERIS_TYPE = 0
CLASSIFICATION_TYPE = U
NORAD_CAT_ID   = 19573
ELEMENT_SET_NO = 999
REV_AT_EPOCH   = 1766
BSTAR          = .31849585E-3
MEAN_MOTION_DOT = .871E-4
MEAN_MOTION_DDOT = 0

CCSDS_OMM_VERS = 2.0
CREATION_DATE  = 
ORIGINATOR     = 

OBJECT_NAME    = SL-14 R/B
OBJECT_ID      = 1988-093B
CENTER_NAME    = EARTH
REF_FRAME      = TEME
TIME_SYSTEM    = UTC
MEAN_ELEMENT_THEORY = SGP/SGP4

EPOCH          = 2026-02-26T06:29:13.402464
MEAN_MOTION    = 14.85640194
ECCENTRICITY   = .002231
INCLINATION    = 82.5284
RA_OF_ASC_NODE = 52.7653
ARG_OF_PERICENTER = 76.9863
MEAN_ANOMALY   = 293.8547

EPHEMERIS_TYPE = 0
CLASSIFICATION_TYPE = U
NORAD_CAT_ID   = 19574
ELEMENT_SET_NO = 999
REV_AT_EPOCH   = 99934
BSTAR          = .59148755E-4
MEAN_MOTION_DOT = .539E-5
MEAN_MOTION_DDOT = 0

CCSDS_OMM_VERS = 2.0
CREATION_DATE  = 
ORIGINATOR     = 

OBJECT_NAME    = SL-16 R/B
OBJECT_ID      = 1988-102B
CENTER_NAME    = EARTH
REF_FRAME      = TEME
TIME_SYSTEM    = UTC
MEAN_ELEMENT_THEORY = SGP/SGP4

EPOCH          = 2026-02-25T14:44:46.973184
MEAN_MOTION    = 14.16150634
ECCENTRICITY   = .00132305
INCLINATION    = 71.0003
RA_OF_ASC_NODE = 176.9022
ARG_OF_PERICENTER = 20.0080
MEAN_ANOMALY   = 340.1560

EPHEMERIS_TYPE = 0
CLASSIFICATION_TYPE = U
NORAD_CAT_ID   = 19650
ELEMENT_SET_NO = 999
REV_AT_EPOCH   = 92518
BSTAR          = -.10309457E-3
MEAN_MOTION_DOT = -.252E-5
MEAN_MOTION_DDOT = 0

CCSDS_OMM_VERS = 2.0
CREATION_DATE  = 
ORIGINATOR     = 

OBJECT_NAME    = INTERCOSMOS 24
OBJECT_ID      = 1989-080A
CENTER_NAME    = EARTH
REF_FRAME      = TEME
TIME_SYSTEM    = UTC
MEAN_ELEMENT_THEORY = SGP/SGP4

EPOCH          = 2026-02-26T04:56:37.891104
MEAN_MOTION    = 12.59537849
ECCENTRICITY   = .11870233
INCLINATION    = 82.6041
RA_OF_ASC_NODE = 111.8817
ARG_OF_PERICENTER = 319.5007
MEAN_ANOMALY   = 32.3332

EPHEMERIS_TYPE = 0
CLASSIFICATION_TYPE = U
NORAD_CAT_ID   = 20261
ELEMENT_SET_NO = 999
REV_AT_EPOCH   = 66535
BSTAR          = .17377417E-3
MEAN_MOTION_DOT = .589E-5
MEAN_MOTION_DDOT = 0

CCSDS_OMM_VERS = 2.0
CREATION_DATE  = 
ORIGINATOR     = 

OBJECT_NAME    = SL-14 R/B
OBJECT_ID      = 1989-080C
CENTER_NAME    = EARTH
REF_FRAME      = TEME
TIME_SYSTEM    = UTC
MEAN_ELEMENT_THEORY = SGP/SGP4

EPOCH          = 2026-02-26T06:33:10.293120
MEAN_MOTION    = 12.50476436
ECCENTRICITY   = .12301124
INCLINATION    = 82.5969
RA_OF_ASC_NODE = 180.5133
ARG_OF_PERICENTER = 210.8425
MEAN_ANOMALY   = 141.4480

EPHEMERIS_TYPE = 0
CLASSIFICATION_TYPE = U
NORAD_CAT_ID   = 20262
ELEMENT_SET_NO = 999
REV_AT_EPOCH   = 65872
BSTAR          = .18185703E-3
MEAN_MOTION_DOT = .61E-5
MEAN_MOTION_DDOT = 0

CCSDS_OMM_VERS = 2.0
CREATION_DATE  = 
ORIGINATOR     = 

OBJECT_NAME    = DELTA 1 R/B
OBJECT_ID      = 1989-089B
CENTER_NAME    = EARTH
REF_FRAME      = TEME
TIME_SYSTEM    = UTC
MEAN_ELEMENT_THEORY = SGP/SGP4

EPOCH          = 2026-02-26T04:05:52.538208
MEAN_MOTION    = 14.50651918
ECCENTRICITY   = .00696815
INCLINATION    = 97.0713
RA_OF_ASC_NODE = 266.4411
ARG_OF_PERICENTER = 157.9160
MEAN_ANOMALY   = 202.5066

EPHEMERIS_TYPE = 0
CLASSIFICATION_TYPE = U
NORAD_CAT_ID   = 20323
ELEMENT_SET_NO = 999
REV_AT_EPOCH   = 89406
BSTAR          = .85711949E-4
MEAN_MOTION_DOT = .312E-5
MEAN_MOTION_DDOT = 0

CCSDS_OMM_VERS = 2.0
CREATION_DATE  = 
ORIGINATOR     = 

OBJECT_NAME    = ARIANE 40 R/B
OBJECT_ID      = 1990-005H
CENTER_NAME    = EARTH
REF_FRAME      = TEME
TIME_SYSTEM    = UTC
MEAN_ELEMENT_THEORY = SGP/SGP4

EPOCH          = 2026-02-26T03:20:08.793888
MEAN_MOTION    = 14.39861510
ECCENTRICITY   = .00091751
INCLINATION    = 98.3110
RA_OF_ASC_NODE = 118.1432
ARG_OF_PERICENTER = 235.0580
MEAN_ANOMALY   = 124.9747

EPHEMERIS_TYPE = 0
CLASSIFICATION_TYPE = U
NORAD_CAT_ID   = 20443
ELEMENT_SET_NO = 999
REV_AT_EPOCH   = 89114
BSTAR          = .84357323E-4
MEAN_MOTION_DOT = .223E-5
MEAN_MOTION_DDOT = 0

