COSMOS 1933             
1 18958U 88020A   26057.05608196  .00003772  00000+0  18486-3 0  9992
2 18958  82.5100 262.4241 0002859 228.3556 131.7433 15.17861683 48465
SL-3 R/B                
1 19046U 88032B   26057.21074313  .00005740  00000+0  26973-3 0  9997
2 19046  97.5173  40.5055 0024080 274.6776  85.1708 15.19748332 50362
SL-16 R/B               
1 19120U 88039B   26057.28350239  .00000092  00000+0  66168-4 0  9994
2 19120  71.0131  92.6685 0022077 351.3353   8.7387 14.19613950956760
COSMOS 1953             
1 19210U 88050A   26057.29933220  .00008870  00000+0  32017-3 0  9992
2 19210  82.5103 169.6973 0011952 159.8246 200.3468 15.28283364 36046
SL-8 R/B                
1 19257U 88053B   26057.24623774  .00000213  00000+0  77500-4 0  9991
2 19257  74.0477 133.5593 0021096 314.6166  64.2587 14.38907919974956
COSMOS 1975             
1 19573U 88093A   26057.26431524  .00008710  00000+0  31850-3 0  9995
2 19573  82.5207 129.1516 0011152 203.4738 156.5994 15.27863640 17664
SL-14 R/B               
1 19574U 88093B   26057.27029401  .00000539  00000+0  59149-4 0  9997
2 19574  82.5284  52.7653 0022310  76.9863 293.8547 14.85640194999346
SL-16 R/B               
1 19650U 88102B   26056.61443256 -.00000252  00000+0 -10309-3 0  9996
2 19650  71.0003 176.9022 0013230  20.0080 340.1560 14.16150634925185
INTERCOSMOS 24          
1 20261U 89080A   26057.20599411  .00000589  00000+0  17377-3 0  9996
2 20261  82.6041 111.8817 1187023 319.5007  32.3332 12.59537849665352
SL-14 R/B               
1 20262U 89080C   26057.27303580  .00000610  00000+0  18186-3 0  9998
2 20262  82.5969 180.5133 1230112 210.8425 141.4480 12.50476436658724
DELTA 1 R/B             
1 20323U 89089B   26057.17074697  .00000312  00000+0  85712-4 0  9997
2 20323  97.0713 266.4411 0069681 157.9160 202.5066 14.50651918894060
ARIANE 40 R/B           
1 20443U 90005H   26057.13899067  .00000223  00000+0  84357-4 0  9997
2 20443  98.3110 118.1432 0009175 235.0580 124.9747 14.39861510891147
